#cP2023  2 19  0  0  0.00000000      96 ORBIT IGS20 HLM  IGS
## 2250      0.00000000   900.00000000 59994 0.0000000000000
+   32   G01G02G03G04G05G06G07G08G09G10G11G12G13G14G15G16G17
+        G18G19G20G21G22G23G24G25G26G27G28G29G30G31G32  0  0
+          0  0  0  0  0  0  0  0  0  0  0  0  0  0  0  0  0
+          0  0  0  0  0  0  0  0  0  0  0  0  0  0  0  0  0
+          0  0  0  0  0  0  0  0  0  0  0  0  0  0  0  0  0
++         2  2  2  3  2  2  2  2  2  2  2  2  3  2  2  2  2
++         2  2  2  2  3  2  2  2  2  2  3  2  2  2  2  0  0
++         0  0  0  0  0  0  0  0  0  0  0  0  0  0  0  0  0
++         0  0  0  0  0  0  0  0  0  0  0  0  0  0  0  0  0
++         0  0  0  0  0  0  0  0  0  0  0  0  0  0  0  0  0
%c G  cc GPS ccc cccc cccc cccc cccc ccccc ccccc ccccc ccccc
%c cc cc ccc ccc cccc cccc cccc cccc ccccc ccccc ccccc ccccc
%f  1.2500000  1.025000000  0.00000000000  0.000000000000000
%f  0.0000000  0.000000000  0.00000000000  0.000000000000000
%i    0    0    0    0      0      0      0      0         0
%i    0    0    0    0      0      0      0      0         0
/* RAPID ORBIT COMBINATION FROM WEIGHTED AVERAGE OF:        
/* cod emr esa gfz grg jpl ngs sio usn whu                  
/* REFERENCED TO IGS TIME (IGST) AND TO WEIGHTED MEAN POLE: 
/* PCV:IGS20_2233 OL/AL:FES2014b NONE     Y  ORB:CMB CLK:CMB
*  2023  2 19 13 30  0.00000000
PG01 -21932.011202 -14725.924311  -4528.566710    210.819996  7  7  5 100       
PG02  23824.466372  11309.247120   2356.465152   -619.776197  5  2  4  91       
PG03 -12409.034421 -16237.076799  16906.463606   -361.196131  5  7  4 101       
PG04 -16950.908072  -5674.805326  19688.836599    -24.109680  6  7  6  80       
PG05   5602.549927  25591.323039  -4135.744265   -116.507409  8  3  4  96       
PG06 -11824.853920   9986.960935  21665.920793    574.138235  5  6  3  66       
PG07 -24682.119606  -5763.654882  -8290.713370    238.080747  7  6  5 101       
PG08  -6356.669506 -14042.428356 -21657.247116   -109.238416  5  4  3 121       
PG09 -22765.061904   4797.287739  12782.307612   -215.301049  8  6  6  97       
PG10  11507.627527 -14922.502433 -18411.214527    -25.359390  8  2  5 105       
PG11   2145.474582  17223.477787  20124.894690   -108.480620  7  5  6 105       
PG12  10584.705227  18556.416790  15564.880223   -342.232319  7  3  5  58       
PG13  -2486.442634  16805.277122 -20541.513915    478.610924  7  3  5 114       
PG14 -13529.910850  12083.565040 -19351.810416    -23.387643  6  7  4 103       
PG15   8619.474768  13678.007284 -21505.957437     14.830431  6  7  7 108       
PG16   -935.601675 -26203.498187  -2405.437787   -519.354320  5  4  3 109       
PG17 -22959.325329  13460.388379    301.105727    701.008740  9  6  4  87       
PG18  23414.380226   2712.624842 -12380.301210   -147.202957 10  7  7 113       
PG19 -17982.000085  16668.030855   9625.547282    279.805678  6  7  3  84       
PG20    293.714402  25576.550404   7582.396666    449.751183  8  1  5 102       
PG21 -18120.071552 -15832.860272 -11520.560995    154.084968  8  4  6 109       
PG22  14535.186506 -18255.487855  12958.217919    430.205399 10     8  80       
PG23  14797.570411  -2374.388823 -21919.252394      6.845305  9  3  7 113       
PG24  20347.849025  15136.990583  -8926.507935    -80.296061  5  5  5 110       
PG25  14859.416272   8639.177516  20009.015964    421.424308  4  5  6  58       
PG26   5587.694918 -23084.986079  11415.324771    241.620241  6  6  3 118       
PG27   5384.425687 -18608.508914 -18213.606483     98.689825  6  4  3 125       
PG28  13561.574413  -9665.043551  20656.515654     18.530366  7  4  4  95       
PG29  21761.842946   -395.119983  15227.119104   -586.956396  6  5  7  69       
PG30 -18972.275408   5109.401739 -17891.072616   -529.761563  5  6  4 104       
PG31  10619.738728 -11489.148384  21338.383370   -209.658193  6  6  5 102       
PG32  20890.384714 -16074.928531   2355.643009   -400.898467  8  9  5  95       
*  2023  2 19 13 45  0.00000000
PG01 -21302.724327 -14576.991092  -7315.407492    210.816138  8  7  5  97       
PG02  23396.755156  11416.525242   5196.040602   -619.773727  5  3  4  98       
PG03 -12440.501768 -18076.239450  14924.616665   -361.191927  6  7  4 100       
PG04 -15071.794632  -7018.541720  20745.778510    -24.102215  6  8  6  96       
PG05   5393.766727  25916.059858  -1288.168558   -116.508659  8  4  4  94       
PG06 -13987.288847   8925.754894  20830.263012    574.141978  5  6  1  84       
PG07 -25342.602385  -6334.339015  -5634.491936    238.074750  8  6  5  89       
PG08  -4366.121252 -15458.122551 -21144.118658   -109.239916  5  5  3 100       
PG09 -21604.488354   3679.499487  14963.813320   -215.294564  8  6  7 106       
PG10  11840.029501 -12717.506758 -19817.034701    -25.360221  8  2  5  92       
PG11     23.565811  16204.887025  21060.857651   -108.489951  5  6  7 104       
PG12  10443.700845  20259.209364  13438.232808   -342.236524  7  3  5  67       
PG13  -4528.515732  17754.765237 -19331.725287    478.616514  7  3  5 102       
PG14 -13784.032930   9810.116566 -20439.414060    -23.379374  6  7  5  96       
PG15   6861.723953  15245.947098 -21045.754162     14.833750  6  6  6 104       
PG16   -659.092966 -26283.515337    485.170055   -519.352936  4  4  3 115       
PG17 -22917.847127  13192.020439  -2574.953246    701.011306  9  6  4  94       
PG18  24480.528242   3424.446578  -9906.458867   -147.217239 10  7  7 104       
PG19 -18947.771471  16953.564733   6942.586180    279.810794  7  7  3  85       
PG20   -209.654218  24668.552138  10148.611254    449.749673  8  3  6 104       
PG21 -16645.178055 -15482.689719 -13798.133030    154.085717  8  3  6  93       
PG22  15752.675595 -18729.995751  10536.684377    430.212487 11  2  7  92       
PG23  15103.787275    108.627553 -21851.351498      6.846840  9  3  7 111       
PG24  19218.126748  15003.846636 -11374.694992    -80.310365  5  6  6 102       
PG25  14986.356622  10914.920560  18809.115590    421.427217  4  5  6  48       
PG26   6107.657554 -21679.161974  13690.128729    241.620476  7  6  3 114       
PG27   7066.441411 -19616.107867 -16437.129693     98.681757  6  3  3 113       
PG28  15656.540751  -8689.881775  19581.384890     18.543291  8  3  3  93       
PG29  20241.811378    678.127954  17175.547866   -586.957770  5  5  6  79       
PG30 -20672.876927   4104.596528 -16218.997771   -529.760350  6  6  4  94       
PG31  12795.392209 -10386.316543  20746.497263   -209.658800  7  6  5 106       
PG32  21122.296447 -15904.944216   -507.589665   -400.908822  9  9  5  71       
*  2023  2 19 14  0  0.00000000
PG01 -20384.101802 -14348.781220  -9980.101158    210.812313  8  6  5  88       
PG02  22675.226507  11451.452145   7946.112462   -619.771653  4  4  4  86       
PG03 -12536.383326 -19672.563129  12685.270631   -361.187684  6  6  4 101       
PG04 -13185.575504  -8519.367049  21446.774447    -24.094757  6  8  7 111       
PG05   5137.122425  25933.360343   1581.706541   -116.509933  7  4  4 100       
PG06 -16099.378160   8031.333621  19639.025007    574.145759  5  6  1  90       
PG07 -25748.470102  -6755.044688  -2883.000687    238.068048  8  6  5  87       
PG08  -2508.669587 -16926.695996 -20266.900849   -109.242307  4  5  3 109       
PG09 -20324.244442   2353.566256  16887.121506   -215.288087  8  6  7 105       
PG10  12312.132443 -10395.863527 -20873.896467    -25.361644  8  2  5 112       
PG11  -2227.389136  15264.659003  21634.978690   -108.499335  5  6  7 107       
PG12  10372.858910  21710.016926  11077.645975   -342.240894  7  3  5  82       
PG13  -6385.952753  18733.612586 -17792.098974    478.622116  6  3  5 103       
PG14 -14163.729475   7450.993564 -21174.240590    -23.371048  6  7  5  96       
PG15   5227.846184  16848.904475 -20236.094357     14.836765  6  6  7 109       
PG16   -363.482992 -26047.518888   3367.141394   -519.351155  3  4  3 116       
PG17 -22628.289332  12731.556711  -5406.687660    701.013065  9  7  5  72       
PG18  25315.933768   3967.475771  -7263.451671   -147.231545 10  6  8 104       
PG19 -19631.130122  17121.440120   4137.329914    279.814943  7  8  4  95       
PG20   -845.396130  23521.936916  12542.406184    449.747417  8  3  6  92       
PG21 -14910.936846 -15144.208326 -15839.042614    154.085539  8  2  6  79       
PG22  16712.982560 -19108.555962   7935.573154    430.219228 12  5  6  72       
PG23  15537.977660   2541.586679 -21407.603982      6.848411  9  4  7 114       
PG24  17833.682878  14851.724270 -13634.524176    -80.324684  5  6  6 111       
PG25  15203.327551  13023.788974  17280.012044    421.430078  4  4  5  67       
PG26   6745.004455 -20060.440147  15723.866117    241.620697  7  6  3 107       
PG27   8527.603050 -20576.301957 -14377.491771     98.673718  6  2  3 122       
PG28  17666.201530  -7871.723749  18168.321110     18.556228  8  2  3  85       
PG29  18614.016720   1949.481156  18828.245085   -586.959796  3  5  6  78       
PG30 -22229.094630   3261.036980 -14268.874749   -529.759173  5  6  4  97       
PG31  14939.291063  -9431.795324  19795.002633   -209.659794  8  7  5  91       
PG32  21111.479898 -15540.271558  -3361.958433   -400.919145 10 10  7  84       
EOF
